$$SOE
2461295.500000000, A.D. 2026-Sep-12 00:00:00.0000, -4.860082864803114E+08, -1.793168866858109E+07, 4.426357264905526E+07,
2461302.500000000, A.D. 2026-Sep-19 00:00:00.0000, -4.842920015799951E+08, -2.749765334626672E+07, 4.359818743034396E+07,
2461309.500000000, A.D. 2026-Sep-26 00:00:00.0000, -4.823721878311897E+08, -3.705199427334097E+07, 4.291447573501528E+07,
2461316.500000000, A.D. 2026-Oct-03 00:00:00.0000, -4.802479786201039E+08, -4.659057154888638E+07, 4.221257618773420E+07,
2461323.500000000, A.D. 2026-Oct-10 00:00:00.0000, -4.779185732658225E+08, -5.610918249722695E+07, 4.149263688478585E+07,
2461330.500000000, A.D. 2026-Oct-17 00:00:00.0000, -4.753832398636574E+08, -6.560356151542056E+07, 4.075481566363993E+07,
2461337.500000000, A.D. 2026-Oct-24 00:00:00.0000, -4.726413182321495E+08, -7.506938010111983E+07, 3.999928036905751E+07,
2461344.500000000, A.D. 2026-Oct-31 00:00:00.0000, -4.696922228649992E+08, -8.450224713399275E+07, 3.922620910101795E+07,
2461351.500000000, A.D. 2026-Nov-07 00:00:00.0000, -4.665354455486240E+08, -9.389770934339720E+07, 3.843579041920669E+07,
2461358.500000000, A.D. 2026-Nov-14 00:00:00.0000, -4.631705574436657E+08, -1.032512510819265E+08, 3.762822355791752E+07,
2461365.500000000, A.D. 2026-Nov-21 00:00:00.0000, -4.595972124408535E+08, -1.125582927306054E+08, 3.680371887295666E+07,
2461372.500000000, A.D. 2026-Nov-28 00:00:00.0000, -4.558151527886086E+08, -1.218141907523236E+08, 3.596249836599262E+07,
2461379.500000000, A.D. 2026-Dec-05 00:00:00.0000, -4.518242133728779E+08, -1.310142400579878E+08, 3.510479590061714E+07,
2461386.500000000, A.D. 2026-Dec-12 00:00:00.0000, -4.476243244822983E+08, -1.401536755816251E+08, 3.423085734899539E+07,
2461393.500000000, A.D. 2026-Dec-19 00:00:00.0000, -4.432155149420104E+08, -1.492276730661225E+08, 3.334094084219136E+07,
2461400.500000000, A.D. 2026-Dec-26 00:00:00.0000, -4.385979157549734E+08, -1.582313499372485E+08, 3.243531706565282E+07,
2461407.500000000, A.D. 2027-Jan-02 00:00:00.0000, -4.337717639723337E+08, -1.671597664668421E+08, 3.151426955834059E+07,
2461414.500000000, A.D. 2027-Jan-09 00:00:00.0000, -4.287374066733064E+08, -1.760079272147164E+08, 3.057809500576857E+07,
2461421.500000000, A.D. 2027-Jan-16 00:00:00.0000, -4.234953050161926E+08, -1.847707827501135E+08, 2.962710352364845E+07,
2461428.500000000, A.D. 2027-Jan-23 00:00:00.0000, -4.180460383110664E+08, -1.934432317020386E+08, 2.866161892374751E+07,
2461435.500000000, A.D. 2027-Jan-30 00:00:00.0000, -4.123903079223667E+08, -2.020201231957509E+08, 2.768197893975654E+07,
2461442.500000000, A.D. 2027-Feb-06 00:00:00.0000, -4.065289405714899E+08, -2.104962593443043E+08, 2.668853540074933E+07,
2461449.500000000, A.D. 2027-Feb-13 00:00:00.0000, -4.004628914924430E+08, -2.188663965838094E+08, 2.568165449266122E+07,
2461456.500000000, A.D. 2027-Feb-20 00:00:00.0000, -3.941932497947768E+08, -2.271252466522885E+08, 2.466171725822424E+07,
2461463.500000000, A.D. 2027-Feb-27 00:00:00.0000, -3.877212446276646E+08, -2.352674804364938E+08, 2.362911994292714E+07,
2461470.500000000, A.D. 2027-Mar-06 00:00:00.0000, -3.810482491173444E+08, -2.432877327754120E+08, 2.258427406570922E+07,
2461477.500000000, A.D. 2027-Mar-13 00:00:00.0000, -3.741757836675323E+08, -2.511806061813467E+08, 2.152760652706400E+07,
2461484.500000000, A.D. 2027-Mar-20 00:00:00.0000, -3.671055197404187E+08, -2.589406743230700E+08, 2.045955978819720E+07,
2461491.500000000, A.D. 2027-Mar-27 00:00:00.0000, -3.598392839038755E+08, -2.665624858296229E+08, 1.938059205601436E+07,
2461498.500000000, A.D. 2027-Apr-03 00:00:00.0000, -3.523790619290096E+08, -2.740405684714108E+08, 1.829117744956200E+07,
2461505.500000000, A.D. 2027-Apr-10 00:00:00.0000, -3.447270028625895E+08, -2.813694337032017E+08, 1.719180614230053E+07,
2461512.500000000, A.D. 2027-Apr-17 00:00:00.0000, -3.368854230362257E+08, -2.885435815898093E+08, 1.608298447504003E+07,
2461519.500000000, A.D. 2027-Apr-24 00:00:00.0000, -3.288568099152738E+08, -2.955575061822001E+08, 1.496523502511209E+07,
2461526.500000000, A.D. 2027-May-01 00:00:00.0000, -3.206438254684946E+08, -3.024057013209262E+08, 1.383909660441214E+07,
2461533.500000000, A.D. 2027-May-08 00:00:00.0000, -3.122493087302698E+08, -3.090826661221457E+08, 1.270512421708256E+07,
2461540.500000000, A.D. 2027-May-15 00:00:00.0000, -3.036762790296240E+08, -3.155829091952580E+08, 1.156388918980116E+07,
2461547.500000000, A.D. 2027-May-22 00:00:00.0000, -2.949279414257492E+08, -3.219009541859843E+08, 1.041597940401536E+07,
2461554.500000000, A.D. 2027-May-29 00:00:00.0000, -2.860076909703532E+08, -3.280313481159675E+08, 9.261999200181648E+06,
2461561.500000000, A.D. 2027-Jun-05 00:00:00.0000, -2.769191148888382E+08, -3.339686693884080E+08, 8.102569126864821E+06,
2461568.500000000, A.D. 2027-Jun-12 00:00:00.0000, -2.676659946635606E+08, -3.397075350261845E+08, 6.938325752219945E+06,
2461575.500000000, A.D. 2027-Jun-19 00:00:00.0000, -2.582523083244848E+08, -3.452426080733861E+08, 5.769921489834964E+06,
2461582.500000000, A.D. 2027-Jun-26 00:00:00.0000, -2.486822326411335E+08, -3.505686054159229E+08, 4.598024389927194E+06,
2461589.500000000, A.D. 2027-Jul-03 00:00:00.0000, -2.389601450566944E+08, -3.556803060058410E+08, 3.423317882463217E+06,
2461596.500000000, A.D. 2027-Jul-10 00:00:00.0000, -2.290906253005164E+08, -3.605725594715580E+08, 2.246500467688635E+06,
2461603.500000000, A.D. 2027-Jul-17 00:00:00.0000, -2.190784566155640E+08, -3.652402951411431E+08, 1.068285345867023E+06,
2461610.500000000, A.D. 2027-Jul-24 00:00:00.0000, -2.089286264169209E+08, -3.696785315269588E+08, -1.106000348319709E+05,
2461617.500000000, A.D. 2027-Jul-31 00:00:00.0000, -1.986463259422231E+08, -3.738823860190580E+08, -1.289414532252580E+06,
2461624.500000000, A.D. 2027-Aug-07 00:00:00.0000, -1.882369490671294E+08, -3.778470836156729E+08, -2.467403854798496E+06,
2461631.500000000, A.D. 2027-Aug-14 00:00:00.0000, -1.777060925591862E+08, -3.815679649209438E+08, -3.643800907529026E+06,
2461638.500000000, A.D. 2027-Aug-21 00:00:00.0000, -1.670595571242346E+08, -3.850404967490041E+08, -4.817826272673666E+06,
2461645.500000000, A.D. 2027-Aug-28 00:00:00.0000, -1.563033457886345E+08, -3.882602841052917E+08, -5.988689041945755E+06,
2461652.500000000, A.D. 2027-Sep-04 00:00:00.0000, -1.454436607750449E+08, -3.912230810138484E+08, -7.155587688555241E+06,
2461659.500000000, A.D. 2027-Sep-11 00:00:00.0000, -1.344869002449149E+08, -3.939248008189932E+08, -8.317710905490279E+06,
2461666.500000000, A.D. 2027-Sep-18 00:00:00.0000, -1.234396547536839E+08, -3.963615265753604E+08, -9.474238475693077E+06,
2461673.500000000, A.D. 2027-Sep-25 00:00:00.0000, -1.123087031706784E+08, -3.985295215650883E+08, -1.062434220150140E+07,
2461680.500000000, A.D. 2027-Oct-02 00:00:00.0000, -1.011010079716367E+08, -4.004252398738858E+08, -1.176718689775300E+07,
2461687.500000000, A.D. 2027-Oct-09 00:00:00.0000, -8.982370986758938E+07, -4.020453369883655E+08, -1.290193145035991E+07,
2461694.500000000, A.D. 2027-Oct-16 00:00:00.0000, -7.848412169722641E+07, -4.033866804252797E+08, -1.402772994949645E+07,
2461701.500000000, A.D. 2027-Oct-23 00:00:00.0000, -6.708972131723834E+07, -4.044463603508799E+08, -1.514373291996822E+07,
2461708.500000000, A.D. 2027-Oct-30 00:00:00.0000, -5.564814311364944E+07, -4.052216995289377E+08, -1.624908863090616E+07,
2461715.500000000, A.D. 2027-Nov-06 00:00:00.0000, -4.416716929780643E+07, -4.057102614148456E+08, -1.734294428296724E+07,
2461722.500000000, A.D. 2027-Nov-13 00:00:00.0000, -3.265472297430554E+07, -4.059098584159636E+08, -1.842444705734947E+07,
2461729.500000000, A.D. 2027-Nov-20 00:00:00.0000, -2.111886008334225E+07, -4.058185624507347E+08, -1.949274546799496E+07,
2461736.500000000, A.D. 2027-Nov-27 00:00:00.0000, -9.567758610223688E+06, -4.054347147932902E+08, -2.054699091942832E+07,
2461743.500000000, A.D. 2027-Dec-04 00:00:00.0000, 1.990292896645878E+06, -4.047569342416890E+08, -2.158633920582086E+07,
2461750.500000000, A.D. 2027-Dec-11 00:00:00.0000, 1.354690692480879E+07, -4.037841245243852E+08, -2.260995197485805E+07,
2461757.500000000, A.D. 2027-Dec-18 00:00:00.0000, 2.509360895994681E+07, -4.025154812334888E+08, -2.361699820406595E+07,
2461764.500000000, A.D. 2027-Dec-25 00:00:00.0000, 3.662184993020152E+07, -4.009504982361658E+08, -2.460665569795930E+07,
2461771.500000000, A.D. 2028-Jan-01 00:00:00.0000, 4.812301913747685E+07, -3.990889734998320E+08, -2.557811260251880E+07,
$$EOE